LYNK TOWER 6            
1 59123U 24043AB  26068.89488777  .00011440  00000+0  40142-3 0  9996
2 59123  97.5426 204.1954 0009749 232.0253 128.0107 15.29548678111845
STARLINK-35431          
1 66030U 25232AB  26068.36694824  .00012522  00000+0  43421-3 0  9991
2 66030  53.1592 105.5703 0001254 111.6918 248.4216 15.30199693 23381
